$$SOE
2460728.500000000, A.D. 2025-Feb-22 00:00:00.0000, 2.500879477863477E+08, 2.648521546622725E+08, 1.482096344935000E+05,
2460735.500000000, A.D. 2025-Mar-01 00:00:00.0000, 2.417528893454826E+08, 2.720180012774886E+08, 1.131950790292785E+06,
2460742.500000000, A.D. 2025-Mar-08 00:00:00.0000, 2.331743108294532E+08, 2.789099671957471E+08, 2.114549011584669E+06,
2460749.500000000, A.D. 2025-Mar-15 00:00:00.0000, 2.243601246565004E+08, 2.855202429114568E+08, 3.095007342063099E+06,
2460756.500000000, A.D. 2025-Mar-22 00:00:00.0000, 2.153184725437333E+08, 2.918411843432180E+08, 4.072324207622826E+06,
2460763.500000000, A.D. 2025-Mar-29 00:00:00.0000, 2.060577259041419E+08, 2.978653158913291E+08, 5.045493574399501E+06,
2460770.500000000, A.D. 2025-Apr-05 00:00:00.0000, 1.965864879943186E+08, 3.035853347628026E+08, 6.013505044812292E+06,
2460777.500000000, A.D. 2025-Apr-12 00:00:00.0000, 1.869135958618018E+08, 3.089941166818138E+08, 6.975344078930080E+06,
2460784.500000000, A.D. 2025-Apr-19 00:00:00.0000, 1.770481218789099E+08, 3.140847221210617E+08, 7.929992288786322E+06,
2460791.500000000, A.D. 2025-Apr-26 00:00:00.0000, 1.669993751085221E+08, 3.188504028680842E+08, 8.876427766637653E+06,
2460798.500000000, A.D. 2025-May-03 00:00:00.0000, 1.567769025877866E+08, 3.232846089620638E+08, 9.813625440888301E+06,
2460805.500000000, A.D. 2025-May-10 00:00:00.0000, 1.463904905287363E+08, 3.273809960253726E+08, 1.074055746045801E+07,
2460812.500000000, A.D. 2025-May-17 00:00:00.0000, 1.358501654408290E+08, 3.311334329636261E+08, 1.165619360369805E+07,
2460819.500000000, A.D. 2025-May-24 00:00:00.0000, 1.251661953153326E+08, 3.345360099940703E+08, 1.255950169444290E+07,
2460826.500000000, A.D. 2025-May-31 00:00:00.0000, 1.143490912534955E+08, 3.375830473280624E+08, 1.344944801545836E+07,
2460833.500000000, A.D. 2025-Jun-07 00:00:00.0000, 1.034096091021114E+08, 3.402691057266011E+08, 1.432499785753852E+07,
2460840.500000000, A.D. 2025-Jun-14 00:00:00.0000, 9.235874869364774E+07, 3.425889982671726E+08, 1.518511636927201E+07,
2460847.500000000, A.D. 2025-Jun-21 00:00:00.0000, 8.120775185849807E+07, 3.445378000549709E+08, 1.602876933216991E+07,
2460854.500000000, A.D. 2025-Jun-28 00:00:00.0000, 6.996810229164027E+07, 3.461108576592229E+08, 1.685492372242360E+07,
2460861.500000000, A.D. 2025-Jul-05 00:00:00.0000, 5.865152571441267E+07, 3.473038004382290E+08, 1.766254837759416E+07,
2460868.500000000, A.D. 2025-Jul-12 00:00:00.0000, 4.726998909022561E+07, 3.481125529472666E+08, 1.845061481479658E+07,
2460875.500000000, A.D. 2025-Jul-19 00:00:00.0000, 3.583569902978512E+07, 3.485333478538069E+08, 1.921809813944231E+07,
2460882.500000000, A.D. 2025-Jul-26 00:00:00.0000, 2.436109953996354E+07, 3.485627393013492E+08, 1.996397802410696E+07,
2460889.500000000, A.D. 2025-Aug-02 00:00:00.0000, 1.285886912361330E+07, 3.481976167382730E+08, 2.068723975670506E+07,
2460896.500000000, A.D. 2025-Aug-09 00:00:00.0000, 1.341917193099046E+06, 3.474352191883340E+08, 2.138687535804419E+07,
2460903.500000000, A.D. 2025-Aug-16 00:00:00.0000, -1.017662018867144E+07, 3.462731498871338E+08, 2.206188475996038E+07,
2460910.500000000, A.D. 2025-Aug-23 00:00:00.0000, -2.168338501262377E+07, 3.447093912848027E+08, 2.271127702200970E+07,
2460917.500000000, A.D. 2025-Aug-30 00:00:00.0000, -3.316480221170155E+07, 3.427423211097732E+08, 2.333407161837529E+07,
2460924.500000000, A.D. 2025-Sep-06 00:00:00.0000, -4.460708621624149E+07, 3.403707304716339E+08, 2.392930000981316E+07,
2460931.500000000, A.D. 2025-Sep-13 00:00:00.0000, -5.599625090725963E+07, 3.375938414813433E+08, 2.449600745239612E+07,
2460938.500000000, A.D. 2025-Sep-20 00:00:00.0000, -6.731811976401804E+07, 3.344113226863899E+08, 2.503325460932736E+07,
2460945.500000000, A.D. 2025-Sep-27 00:00:00.0000, -7.855833522595140E+07, 3.308233053800279E+08, 2.554011912438892E+07,
2460952.500000000, A.D. 2025-Oct-04 00:00:00.0000, -8.970236936161967E+07, 3.268304012672217E+08, 2.601569738706489E+07,
2460959.500000000, A.D. 2025-Oct-11 00:00:00.0000, -1.007355362970858E+08, 3.224337204803339E+08, 2.645910644811866E+07,
2460966.500000000, A.D. 2025-Oct-18 00:00:00.0000, -1.116430061966157E+08, 3.176348896049656E+08, 2.686948603895620E+07,
2460973.500000000, A.D. 2025-Oct-25 00:00:00.0000, -1.224098207257881E+08, 3.124360696539010E+08, 2.724600068349639E+07,
2460980.500000000, A.D. 2025-Nov-01 00:00:00.0000, -1.330209100221008E+08, 3.068399739178119E+08, 2.758784189917322E+07,
2460987.500000000, A.D. 2025-Nov-08 00:00:00.0000, -1.434611112003348E+08, 3.008498855604424E+08, 2.789423047893918E+07,
2460994.500000000, A.D. 2025-Nov-15 00:00:00.0000, -1.537151883040127E+08, 2.944696747867144E+08, 2.816441883249839E+07,
2461001.500000000, A.D. 2025-Nov-22 00:00:00.0000, -1.637678533556798E+08, 2.877038156800236E+08, 2.839769336352327E+07,
2461008.500000000, A.D. 2025-Nov-29 00:00:00.0000, -1.736037887105266E+08, 2.805574037108595E+08, 2.859337698458062E+07,
2461015.500000000, A.D. 2025-Dec-06 00:00:00.0000, -1.832076730355913E+08, 2.730361736430222E+08, 2.875083196165398E+07,
2461022.500000000, A.D. 2025-Dec-13 00:00:00.0000, -1.925642105079838E+08, 2.651465143176410E+08, 2.886946276539162E+07,
2461029.500000000, A.D. 2025-Dec-20 00:00:00.0000, -2.016581597551341E+08, 2.568954811652184E+08, 2.894871868298796E+07,
2461036.500000000, A.D. 2025-Dec-27 00:00:00.0000, -2.104743636284734E+08, 2.482908088641103E+08, 2.898809649154221E+07,
2461043.500000000, A.D. 2026-Jan-03 00:00:00.0000, -2.189977812682640E+08, 2.393409233581845E+08, 2.898714326564510E+07,
2461050.500000000, A.D. 2026-Jan-10 00:00:00.0000, -2.272135223269781E+08, 2.300549523688124E+08, 2.894545924093264E+07,
2461057.500000000, A.D. 2026-Jan-17 00:00:00.0000, -2.351068830803879E+08, 2.204427341149287E+08, 2.886270069071095E+07,
2461064.500000000, A.D. 2026-Jan-24 00:00:00.0000, -2.426633842921568E+08, 2.105148240655722E+08, 2.873858279490069E+07,
2461071.500000000, A.D. 2026-Jan-31 00:00:00.0000, -2.498688107307712E+08, 2.002824995169620E+08, 2.857288248141876E+07,
2461078.500000000, A.D. 2026-Feb-07 00:00:00.0000, -2.567092521754916E+08, 1.897577617347345E+08, 2.836544121053960E+07,
2461085.500000000, A.D. 2026-Feb-14 00:00:00.0000, -2.631711455304120E+08, 1.789533354430953E+08, 2.811616765632121E+07,
2461092.500000000, A.D. 2026-Feb-21 00:00:00.0000, -2.692413175049189E+08, 1.678826660344405E+08, 2.782504027294776E+07,
2461099.500000000, A.D. 2026-Feb-28 00:00:00.0000, -2.749070287687389E+08, 1.565599154511106E+08, 2.749210991442811E+07,
2461106.500000000, A.D. 2026-Mar-07 00:00:00.0000, -2.801560214465264E+08, 1.449999545978895E+08, 2.711750251168987E+07,
2461113.500000000, A.D. 2026-Mar-14 00:00:00.0000, -2.849765669560019E+08, 1.332183497793200E+08, 2.670142133697031E+07,
2461120.500000000, A.D. 2026-Mar-21 00:00:00.0000, -2.893575121516763E+08, 1.212313458961858E+08, 2.624414890371791E+07,
2461127.500000000, A.D. 2026-Mar-28 00:00:00.0000, -2.932883255151643E+08, 1.090558472834019E+08, 2.574604874560704E+07,
2461134.500000000, A.D. 2026-Apr-04 00:00:00.0000, -2.967591437096959E+08, 9.670939511265402E+07, 2.520756702671594E+07,
2461141.500000000, A.D. 2026-Apr-11 00:00:00.0000, -2.997608179063129E+08, 8.421014091702113E+07, 2.462923390314721E+07,
2461148.500000000, A.D. 2026-Apr-18 00:00:00.0000, -3.022849593787866E+08, 7.157681617233142E+07, 2.401166459525742E+07,
2461155.500000000, A.D. 2026-Apr-25 00:00:00.0000, -3.043239839610910E+08, 5.882869792157836E+07, 2.335556014232749E+07,
2461162.500000000, A.D. 2026-May-02 00:00:00.0000, -3.058711549638814E+08, 4.598557041970421E+07, 2.266170781056987E+07,
2461169.500000000, A.D. 2026-May-09 00:00:00.0000, -3.069206240437924E+08, 3.306768277812369E+07, 2.193098111564753E+07,
2461176.500000000, A.D. 2026-May-16 00:00:00.0000, -3.074674692615150E+08, 2.009570283410689E+07, 2.116433941670741E+07,
2461183.500000000, A.D. 2026-May-23 00:00:00.0000, -3.075077298908792E+08, 7.090668396875300E+06, 2.036282714378894E+07,
2461190.500000000, A.D. 2026-May-30 00:00:00.0000, -3.070384396790075E+08, -5.926063637499205E+06, 1.952757286145209E+07,
2461197.500000000, A.D. 2026-Jun-06 00:00:00.0000, -3.060576585149766E+08, -1.893287335739730E+07, 1.865978791996267E+07,
2461204.500000000, A.D. 2026-Jun-13 00:00:00.0000, -3.045644984981844E+08, -3.190793862206269E+07, 1.776076436793912E+07,
2461211.500000000, A.D. 2026-Jun-20 00:00:00.0000, -3.025591445684655E+08, -4.482929731510445E+07, 1.683187240877437E+07,
2461218.500000000, A.D. 2026-Jun-27 00:00:00.0000, -3.000428710716364E+08, -5.767491105106075E+07, 1.587455752905964E+07,
2461225.500000000, A.D. 2026-Jul-04 00:00:00.0000, -2.970180539762703E+08, -7.042273073091525E+07, 1.489033724061672E+07,
2461232.500000000, A.D. 2026-Jul-11 00:00:00.0000, -2.934881782563980E+08, -8.305076367102152E+07, 1.388079741314961E+07,
2461239.500000000, A.D. 2026-Jul-18 00:00:00.0000, -2.894578401732571E+08, -9.553714184152649E+07, 1.284758820792177E+07,
2461246.500000000, A.D. 2026-Jul-25 00:00:00.0000, -2.849327443128069E+08, -1.078601907413127E+08, 1.179241963188523E+07,
2461253.500000000, A.D. 2026-Aug-01 00:00:00.0000, -2.799196952600495E+08, -1.199984984610184E+08, 1.071705672925344E+07,
2461260.500000000, A.D. 2026-Aug-08 00:00:00.0000, -2.744265836701653E+08, -1.319309844597057E+08, 9.623314416928202E+06,
2461267.500000000, A.D. 2026-Aug-15 00:00:00.0000, -2.684623663462826E+08, -1.436369670920078E+08, 8.513051995315768E+06,
2461274.500000000, A.D. 2026-Aug-22 00:00:00.0000, -2.620370411636245E+08, -1.550962281569719E+08, 7.388167540452123E+06,
2461281.500000000, A.D. 2026-Aug-29 00:00:00.0000, -2.551616192641977E+08, -1.662890753474084E+08, 6.250592314444780E+06,
2461288.500000000, A.D. 2026-Sep-05 00:00:00.0000, -2.478480925840785E+08, -1.771964049957695E+08, 5.102284805938661E+06,
2461295.500000000, A.D. 2026-Sep-12 00:00:00.0000, -2.401093945113509E+08, -1.877997621720257E+08, 3.945224423600569E+06,
$$EOE